[{"OBJECT_NAME":"SITRO-AIS 8 (ANOKHIN)","OBJECT_ID":"2023-091AD","EPOCH":"2026-03-09T23:44:40.058592","MEAN_MOTION":15.29359179,"ECCENTRICITY":0.0012509,"INCLINATION":97.5169,"RA_OF_ASC_NODE":133.2823,"ARG_OF_PERICENTER":92.0171,"MEAN_ANOMALY":268.2501,"EPHEMERIS_TYPE":0,"CLASSIFICATION_TYPE":"U","NORAD_CAT_ID":57193,"ELEMENT_SET_NO":999,"REV_AT_EPOCH":14927,"BSTAR":0.00064982524,"MEAN_MOTION_DOT":0.00018494,"MEAN_MOTION_DDOT":0},{"OBJECT_NAME":"STARLINK-32371","OBJECT_ID":"2024-154P","EPOCH":"2026-03-09T21:03:20.633760","MEAN_MOTION":15.30200468,"ECCENTRICITY":0.00012748,"INCLINATION":53.1602,"RA_OF_ASC_NODE":282.972,"ARG_OF_PERICENTER":70.4855,"MEAN_ANOMALY":289.6283,"EPHEMERIS_TYPE":0,"CLASSIFICATION_TYPE":"U","NORAD_CAT_ID":60916,"ELEMENT_SET_NO":999,"REV_AT_EPOCH":8636,"BSTAR":-0.00012700477,"MEAN_MOTION_DOT":-4.119e-5,"MEAN_MOTION_DDOT":0}]
